OSCAR 7 (AO-7)          
1 07530U 74089B   26198.29589780 -.00000041  00000+0  32369-4 0  9999
2 07530 101.9906 211.8562 0012651  74.4813 299.0032 12.53698627364298
PHASE 3B (AO-10)        
1 14129U 83058B   26194.10401075 -.00000187  00000+0  00000+0 0  9996
2 14129  25.9345 215.2934 6002223 122.7887 309.2966  2.05872336296023
UOSAT 2 (UO-11)         
1 14781U 84021B   26197.88779574  .00000485  00000+0  54932-4 0  9999
2 14781  97.8077 163.1353 0009255  86.8071 273.4206 14.90851085261558
LUSAT (LO-19)           
1 20442U 90005G   26197.97312020  .00000027  00000+0  26361-4 0  9995
2 20442  98.8847 220.5985 0012585 116.5871 243.6604 14.34131028906668
EYESAT A (AO-27)        
1 22825U 93061C   26198.13696169  .00000035  00000+0  30281-4 0  9990
2 22825  98.6866 265.5374 0008651  20.4640 339.6888 14.30949370711286
ITAMSAT (IO-26)         
1 22826U 93061D   26198.17733621  .00000037  00000+0  30669-4 0  9992
2 22826  98.6813 265.4982 0008819   3.6742 356.4504 14.31377045711608
RADIO ROSTO (RS15)      
1 23439U 94085A   26198.18158145 -.00000037  00000+0  15493-3 0  9991
2 23439  64.8147 254.7080 0156991 358.3453   1.6933 11.27583535299283
JAS-2 (FO-29)           
1 24278U 96046B   26198.03210312 -.00000015  00000+0  20431-4 0  9996
2 24278  98.5219  42.8130 0350271  19.1820 342.2137 13.53275796477206
TECHSAT 1B (GO-32)      
1 25397U 98043D   26197.91760655  .00000005  00000+0  22495-4 0  9994
2 25397  99.0086 191.4285 0002236 112.2048 247.9368 14.24433546455561
ISS (ZARYA)             
1 25544U 98067A   26198.25023249  .00003610  00000+0  73578-4 0  9996
2 25544  51.6315 151.3159 0006795 305.6667  54.3688 15.49030578576417
PCSAT (NO-44)           
1 26931U 01043C   26197.98319245  .00000020  00000+0  38430-4 0  9998
2 26931  67.0496 167.2049 0005898 266.7286  93.3141 14.31965394294710
SAUDISAT 1C (SO-50)     
1 27607U 02058C   26198.16208639  .00000356  00000+0  60036-4 0  9990
2 27607  64.5519  36.2392 0074468 256.9149 102.3638 14.83100454268902
CUTE-1 (CO-55)          
1 27844U 03031E   26198.24363234  .00000130  00000+0  74994-4 0  9995
2 27844  98.6744 206.4251 0010861  97.4238 262.8176 14.24352277195952
CUBESAT XI-IV (CO-57)   
1 27848U 03031J   26197.96606915  .00000108  00000+0  66478-4 0  9996
2 27848  98.6775 205.8397 0010600 114.7088 245.5195 14.23635119195611
MOZHAETS 4 (RS22)       
1 27939U 03042A   26198.30683163  .00000493  00000+0  84109-4 0  9996
2 27939  98.3470  23.5178 0011404 166.6377 318.7959 14.73516213219989
CUBESAT XI-V            
1 28895U 05043F   26197.95849457  .00000631  00000+0  10709-3 0  9999
2 28895  98.3017 354.2118 0015311 110.0551 250.2305 14.72704810106132
CUTE-1.7+APD II (CO-65) 
1 32785U 08021C   26198.20938650  .00002230  00000+0  14252-3 0  9998
2 32785  97.8298 180.2615 0006884 291.3226  68.7267 15.09711390989721
SEEDS II (CO-66)        
1 32791U 08021J   26197.96057869  .00010024  00000+0  31007-3 0  9998
2 32791  97.7526 197.3035 0003273 152.6353 207.5061 15.33703048991855
YUBILEINY (RS30)        
1 32953U 08025A   26198.35821998  .00000016  00000+0  43061-4 0  9992
2 32953  82.5065 336.6709 0018661 243.9456 115.9703 12.43180742823448
KKS-1 (KISEKI)          
1 33499U 09002H   26198.21086256  .00000568  00000+0  76422-4 0  9998
2 33499  98.1173 121.1288 0007603 182.1274 177.9908 14.83191796940646
SWISSCUBE               
1 35932U 09051B   26198.20334655  .00000449  00000+0  98211-4 0  9992
2 35932  98.4005 106.6116 0007938 113.6742 246.5293 14.62532837893543
BEESAT-1                
1 35933U 09051C   26197.68087813  .00000383  00000+0  86615-4 0  9997
2 35933  98.3932 105.6536 0006186 125.9975 234.1800 14.61763234893492
ITUPSAT1                
1 35935U 09051E   26198.17721015  .00000337  00000+0  79459-4 0  9990
2 35935  98.4015 105.3171 0008204 137.6090 222.5745 14.60480346893117
XIWANG-1 (HOPE-1)       
1 36122U 09072B   26198.26353175 -.00000350  00000+0 -79931-3 0  9991
2 36122 100.4041 151.6177 0007563 160.1186 200.0223 13.16438783796968
O/OREOS (USA 219)       
1 37224U 10062C   26197.92946135  .00000983  00000+0  98374-4 0  9995
2 37224  71.9698  12.9594 0014079   1.7008 358.4208 14.93855236121085
JUGNU                   
1 37839U 11058B   26198.16629453  .00000335  00000+0  35858-4 0  9990
2 37839  19.9596 126.2869 0018611  48.1963  89.0801 14.13783712763271
SRMSAT                  
1 37841U 11058D   26198.34105350  .00000327  00000+0  33542-4 0  9997
2 37841  19.9706 236.9573 0011712 174.7321 280.3088 14.11581363762084
STRAND-1                
1 39090U 13009E   26197.43623744  .00000110  00000+0  51462-4 0  9995
2 39090  98.3935  16.9527 0009469 137.7246 222.4672 14.37179260701269
ZACUBE-1 (TSHEPISOSAT)  
1 39417U 13066B   26197.93417495  .00001271  00000+0  10162-3 0  9990
2 39417  97.8006 160.4171 0044089 149.6523 210.7268 15.01333423685191
GOMX-1                  
1 39430U 13066Q   26198.28197060  .00000646  00000+0  10385-3 0  9999
2 39430  97.6462  36.8453 0128042 341.4939  18.1632 14.69545481674335
